NORAD_CAT_ID,OBJECT_NAME,OBJECT_TYPE,EPOCH,MEAN_MOTION,ECCENTRICITY,INCLINATION,RA_OF_ASC_NODE,ARG_OF_PERICENTER,MEAN_ANOMALY,BSTAR,MEAN_MOTION_DOT,MEAN_MOTION_DDOT,TLE_LINE0,TLE_LINE1,TLE_LINE2,SEMIMAJOR_AXIS,PERIOD,APOGEE,PERIGEE,DECAYED
52998.0,STARLINK-4254,PAYLOAD,2024-02-13 06:43:32,15.08841886,0.0001364,53.217,245.2002,98.4766,261.6381,4.0188e-05,3.52e-06,0.0,0 STARLINK-4254,1 52998U 22076N   24044.28023889  .00000352  00000-0  40188-4 0  9999,2 52998  53.2170 245.2002 0001364  98.4766 261.6381 15.08841886 88802,6917.875,95.437,540.683,538.796,0.0
52998.0,STARLINK-4254,PAYLOAD,2024-02-13 19:26:37,15.08847337,0.0001405,53.2165,242.821,85.3803,274.7349,-4.746e-05,-1.043e-05,0.0,0 STARLINK-4254,1 52998U 22076N   24044.81015903 -.00001043  00000-0 -47460-4 0  9996,2 52998  53.2165 242.8210 0001405  85.3803 274.7349 15.08847337 89350,6917.858,95.437,540.695,538.751,0.0
52998.0,STARLINK-4254,PAYLOAD,2024-02-13 22:37:23,15.08846605,0.0001287,53.2158,242.2249,96.3222,263.7916,3.1225e-05,2.09e-06,0.0,0 STARLINK-4254,1 52998U 22076N   24044.94263579  .00000209  00000-0  31225-4 0  9997,2 52998  53.2158 242.2249 0001287  96.3222 263.7916 15.08846605 88908,6917.86,95.437,540.616,538.835,0.0
52998.0,STARLINK-4254,PAYLOAD,2024-02-14 06:34:19,15.08847636,0.0001381,53.2158,240.7379,91.6527,268.4623,-2.9179e-05,-7.52e-06,0.0,0 STARLINK-4254,1 52998U 22076N   24045.27383552 -.00000752  00000-0 -29179-4 0  9998,2 52998  53.2158 240.7379 0001381  91.6527 268.4623 15.08847636 88953,6917.857,95.437,540.677,538.767,0.0
52998.0,STARLINK-4254,PAYLOAD,2024-02-14 19:17:24,15.08843221,0.0001418,53.2162,238.3574,98.9056,261.2097,2.3247e-05,8.2e-07,0.0,0 STARLINK-4254,1 52998U 22076N   24045.80375747  .00000082  00000-0  23247-4 0  9998,2 52998  53.2162 238.3574 0001418  98.9056 261.2097 15.08843221 89038,6917.871,95.437,540.716,538.755,0.0
52998.0,STARLINK-4254,PAYLOAD,2024-02-15 19:08:11,15.08839959,0.0001358,53.2165,233.8976,96.8587,263.256,2.3837e-05,9.1e-07,0.0,0 STARLINK-4254,1 52998U 22076N   24046.79736023  .00000091  00000-0  23837-4 0  9990,2 52998  53.2165 233.8976 0001358  96.8587 263.2560 15.08839959 89654,6917.881,95.438,540.685,538.806,0.0
52998.0,STARLINK-4254,PAYLOAD,2024-02-16 18:58:58,15.08842378,0.0001313,53.2168,229.4385,95.2906,264.8236,7.401e-05,8.9e-06,0.0,0 STARLINK-4254,1 52998U 22076N   24047.79095729  .00000890  00000-0  74010-4 0  9998,2 52998  53.2168 229.4385 0001313  95.2906 264.8236 15.08842378 89332,6917.873,95.437,540.646,538.83,0.0
52998.0,STARLINK-4254,PAYLOAD,2024-02-17 04:31:17,15.08838739,0.0001287,53.2165,227.6542,93.4415,266.6724,5.4967e-05,5.87e-06,0.0,0 STARLINK-4254,1 52998U 22076N   24048.18840056  .00000587  00000-0  54967-4 0  9995,2 52998  53.2165 227.6542 0001287  93.4415 266.6724 15.08838739 89865,6917.884,95.438,540.64,538.859,0.0
52998.0,STARLINK-4254,PAYLOAD,2024-02-17 18:49:46,15.08831867,0.000134,53.2168,224.9808,96.3358,263.7787,-5.1663e-06,-3.7e-06,0.0,0 STARLINK-4254,1 52998U 22076N   24048.78456875 -.00000370  00000-0 -51663-5 0  9996,2 52998  53.2168 224.9808 0001340  96.3358 263.7787 15.08831867 89953,6917.905,95.438,540.697,538.843,0.0
52998.0,STARLINK-4254,PAYLOAD,2024-02-17 22:00:32,15.08836552,0.0001418,53.2166,224.3854,96.9584,263.1569,1.2695e-05,-8.6e-07,0.0,0 STARLINK-4254,1 52998U 22076N   24048.91704563 -.00000086  00000-0  12695-4 0  9995,2 52998  53.2166 224.3854 0001418  96.9584 263.1569 15.08836552 89508,6917.891,95.438,540.737,538.775,0.0
52998.0,STARLINK-4254,PAYLOAD,2024-02-18 04:22:05,15.08834374,0.000122,53.2157,223.1938,88.3698,271.7433,2.2e-05,6.2e-07,0.0,0 STARLINK-4254,1 52998U 22076N   24049.18200748  .00000062  00000-0  22000-4 0  9995,2 52998  53.2157 223.1938 0001220  88.3698 271.7433 15.08834374 89549,6917.898,95.438,540.607,538.919,0.0
52998.0,STARLINK-4254,PAYLOAD,2024-02-18 18:40:33,15.08843226,0.0001217,53.2156,220.5172,91.8841,268.2291,4.5383e-05,4.35e-06,0.0,0 STARLINK-4254,1 52998U 22076N   24049.77816215  .00000435  00000-0  45383-4 0  9995,2 52998  53.2156 220.5172 0001217  91.8841 268.2291 15.08843226 90107,6917.871,95.437,540.577,538.894,0.0
52998.0,STARLINK-4254,PAYLOAD,2024-02-18 20:15:56,15.0884541,0.0001261,53.2158,220.2202,96.1058,264.0078,6.5416e-05,7.54e-06,0.0,0 STARLINK-4254,1 52998U 22076N   24049.84440016  .00000754  00000-0  65416-4 0  9998,2 52998  53.2158 220.2202 0001261  96.1058 264.0078 15.08845410 89648,6917.864,95.437,540.601,538.857,0.0
52998.0,STARLINK-4254,PAYLOAD,2024-02-19 04:12:52,15.08838298,0.00015,53.2167,218.7328,81.9362,278.18,3.2733e-05,2.33e-06,0.0,0 STARLINK-4254,1 52998U 22076N   24050.17560693  .00000233  00000-0  32733-4 0  9998,2 52998  53.2167 218.7328 0001500  81.9362 278.1800 15.08838298 90169,6917.886,95.438,540.788,538.713,0.0
52998.0,STARLINK-4254,PAYLOAD,2024-02-19 20:06:43,15.08838906,0.0001401,53.2172,215.759,95.809,264.3062,0.00010718,1.418e-05,0.0,0 STARLINK-4254,1 52998U 22076N   24050.83800592  .00001418  00000-0  10718-3 0  9990,2 52998  53.2172 215.7590 0001401  95.8090 264.3062 15.08838906 89795,6917.884,95.438,540.718,538.78,0.0
52998.0,STARLINK-4254,PAYLOAD,2024-02-20 10:25:12,15.08830572,0.000167,53.2176,213.0817,83.4667,276.6516,8.0238e-06,-1.6e-06,0.0,0 STARLINK-4254,1 52998U 22076N   24051.43417756 -.00000160  00000-0  80238-5 0  9993,2 52998  53.2176 213.0817 0001670  83.4667 276.6516 15.08830572 90358,6917.909,95.438,540.929,538.619,0.0
52998.0,STARLINK-4254,PAYLOAD,2024-02-20 15:11:22,15.08835268,0.0001605,53.2176,212.1921,83.4243,276.6932,1.716e-05,-1.5e-07,0.0,0 STARLINK-4254,1 52998U 22076N   24051.63289456 -.00000015  00000-0  17160-4 0  9991,2 52998  53.2176 212.1921 0001605  83.4243 276.6932 15.08835268 89911,6917.895,95.438,540.87,538.65,0.0
52998.0,STARLINK-4254,PAYLOAD,2024-02-20 18:22:08,15.08837036,0.0001335,53.2169,211.5981,83.0704,277.044,-5.0983e-06,-3.69e-06,0.0,0 STARLINK-4254,1 52998U 22076N   24051.76537390 -.00000369  00000-0 -50983-5 0  9992,2 52998  53.2169 211.5981 0001335  83.0704 277.0440 15.08837036 89936,6917.889,95.438,540.678,538.831,0.0
52998.0,STARLINK-4254,PAYLOAD,2024-02-21 15:02:08,15.08846073,0.0001298,53.2166,207.7314,81.1198,278.9941,0.00012399,1.686e-05,0.0,0 STARLINK-4254,1 52998U 22076N   24052.62648346  .00001686  00000-0  12399-3 0  9990,2 52998  53.2166 207.7314 0001298  81.1198 278.9941 15.08846073 90067,6917.862,95.437,540.625,538.829,0.0
52998.0,STARLINK-4254,PAYLOAD,2024-02-21 16:37:31,15.08847103,0.0001221,53.2163,207.4337,82.0264,278.0866,0.00014162,1.967e-05,0.0,0 STARLINK-4254,1 52998U 22076N   24052.69272204  .00001967  00000-0  14162-3 0  9995,2 52998  53.2163 207.4337 0001221  82.0264 278.0866 15.08847103 90541,6917.859,95.437,540.568,538.879,0.0
52998.0,STARLINK-4254,PAYLOAD,2024-02-22 10:06:46,15.08832148,0.0001244,53.2172,204.1627,83.0074,277.1059,0.00011723,1.578e-05,0.0,0 STARLINK-4254,1 52998U 22076N   24053.42137132  .00001578  00000-0  11723-3 0  9995,2 52998  53.2172 204.1627 0001244  83.0074 277.1059 15.08832148 90651,6917.904,95.438,540.63,538.909,0.0
52998.0,STARLINK-4254,PAYLOAD,2024-02-22 14:52:55,15.08834228,0.000133,53.2164,203.272,75.8937,284.2203,7.4458e-05,8.97e-06,0.0,0 STARLINK-4254,1 52998U 22076N   24053.62009201  .00000897  00000-0  74458-4 0  9990,2 52998  53.2164 203.2720 0001330  75.8937 284.2203 15.08834228 90212,6917.898,95.438,540.683,538.843,0.0
52998.0,STARLINK-4254,PAYLOAD,2024-02-22 16:28:18,15.08835279,0.0001234,53.2172,202.9722,90.4703,269.6431,0.00016136,2.281e-05,0.0,0 STARLINK-4254,1 52998U 22076N   24053.68632808  .00002281  00000-0  16136-3 0  9998,2 52998  53.2172 202.9722 0001234  90.4703 269.6431 15.08835279 90224,6917.895,95.438,540.613,538.906,0.0
52998.0,STARLINK-4254,PAYLOAD,2024-02-23 14:43:42,15.08840476,0.0001216,53.2168,198.8101,86.9729,273.1402,-1.1069e-05,-4.64e-06,0.0,0 STARLINK-4254,1 52998U 22076N   24054.61368916 -.00000464  00000-0 -11069-4 0  9992,2 52998  53.2168 198.8101 0001216  86.9729 273.1402 15.08840476 90369,6917.879,95.438,540.585,538.903,0.0
52998.0,STARLINK-4254,PAYLOAD,2024-02-23 19:29:51,15.08847307,0.0001269,53.2166,197.9173,85.6839,274.4298,-1.7358e-05,-5.64e-06,0.0,0 STARLINK-4254,1 52998U 22076N   24054.81240482 -.00000564  00000-0 -17358-4 0  9999,2 52998  53.2166 197.9173 0001269  85.6839 274.4298 15.08847307 90864,6917.858,95.437,540.601,538.845,0.0
52998.0,STARLINK-4254,PAYLOAD,2024-02-24 09:48:21,15.08830603,0.0001323,53.2151,195.2398,90.5401,269.5742,-1.0029e-05,-4.47e-06,0.0,0 STARLINK-4254,1 52998U 22076N   24055.40857678 -.00000447  00000-0 -10029-4 0  9994,2 52998  53.2151 195.2398 0001323  90.5401 269.5742 15.08830603 90959,6917.909,95.438,540.689,538.859,0.0
52998.0,STARLINK-4254,PAYLOAD,2024-02-24 12:59:07,15.08831643,0.0001313,53.2152,194.6447,92.9033,267.2109,-9.3939e-06,-4.37e-06,0.0,0 STARLINK-4254,1 52998U 22076N   24055.54105667 -.00000437  00000-0 -93939-5 0  9994,2 52998  53.2152 194.6447 0001313  92.9033 267.2109 15.08831643 90502,6917.906,95.438,540.679,538.863,0.0
52998.0,STARLINK-4254,PAYLOAD,2024-02-24 16:09:53,15.08834995,0.0001332,53.2164,194.0528,90.8101,269.3044,3.4059e-05,2.54e-06,0.0,0 STARLINK-4254,1 52998U 22076N   24055.67353404  .00000254  00000-0  34059-4 0  9994,2 52998  53.2164 194.0528 0001332  90.8101 269.3044 15.08834995 90529,6917.896,95.438,540.682,538.839,0.0
52998.0,STARLINK-4254,PAYLOAD,2024-02-25 12:49:53,15.08844244,0.0001318,53.2162,190.1879,95.1634,264.9509,7.2923e-05,8.73e-06,0.0,0 STARLINK-4254,1 52998U 22076N   24056.53464881  .00000873  00000-0  72923-4 0  9991,2 52998  53.2162 190.1879 0001318  95.1634 264.9509 15.08844244 91128,6917.867,95.437,540.644,538.821,0.0
52998.0,STARLINK-4254,PAYLOAD,2024-02-25 14:25:16,15.08846032,0.0001343,53.2162,189.8907,95.7754,264.3392,8.9544e-05,1.138e-05,0.0,0 STARLINK-4254,1 52998U 22076N   24056.60088722  .00001138  00000-0  89544-4 0  9997,2 52998  53.2162 189.8907 0001343  95.7754 264.3392 15.08846032 90661,6917.862,95.437,540.656,538.798,0.0
